[{"OBJECT_NAME":"VELOX-CI","OBJECT_ID":"2015-077A","EPOCH":"2026-03-08T10:58:14.208096","MEAN_MOTION":15.45693088,"ECCENTRICITY":0.00053474,"INCLINATION":14.982,"RA_OF_ASC_NODE":142.3315,"ARG_OF_PERICENTER":190.5671,"MEAN_ANOMALY":169.4542,"EPHEMERIS_TYPE":0,"CLASSIFICATION_TYPE":"U","NORAD_CAT_ID":41166,"ELEMENT_SET_NO":999,"REV_AT_EPOCH":56709,"BSTAR":0.00065686115,"MEAN_MOTION_DOT":0.00034094,"MEAN_MOTION_DDOT":0},{"OBJECT_NAME":"STARLINK-36692","OBJECT_ID":"2026-026Z","EPOCH":"2026-03-09T22:00:01.999584","MEAN_MOTION":15.49151009,"ECCENTRICITY":0.0001001,"INCLINATION":97.285,"RA_OF_ASC_NODE":123.5069,"ARG_OF_PERICENTER":84.7027,"MEAN_ANOMALY":141.487,"EPHEMERIS_TYPE":0,"CLASSIFICATION_TYPE":"U","NORAD_CAT_ID":67744,"ELEMENT_SET_NO":999,"REV_AT_EPOCH":535,"BSTAR":0.0011356985,"MEAN_MOTION_DOT":0.00062083,"MEAN_MOTION_DDOT":0}]
